{"type": "FeatureCollection", "features": [ {"type": "Feature", "properties": {"norad_id": 28659, "name": "DIRECTV 8", "group": "intelsat", "lat": -0.038350132676741894, "lon": -112.89419423793949, "alt_km": 35772.54522790498, "timestamp": "2025-12-03T19:33:06.647103+00:00", "meta": {"OBJECT_NAME": "DIRECTV 8", "OBJECT_ID": "2005-019A", "EPOCH": "2025-12-03T09:45:51.160032", "MEAN_MOTION": 1.0027137, "ECCENTRICITY": 0.0003313, "INCLINATION": 0.0162, "RA_OF_ASC_NODE": 311.7689, "ARG_OF_PERICENTER": 309.09, "MEAN_ANOMALY": 199.0642, "EPHEMERIS_TYPE": 0, "CLASSIFICATION_TYPE": "U", "NORAD_CAT_ID": 28659, "ELEMENT_SET_NO": 999, "REV_AT_EPOCH": 7511, "BSTAR": 0, "MEAN_MOTION_DOT": 2e-07, "MEAN_MOTION_DDOT": 0}, "tle": {"line1": "1 28659U 05019A   25337.40684213  .00000020  00000+0  00000+0 0  9993", "line2": "2 28659   0.0162 311.7689 0003313 309.0900 199.0642  1.00271370 75113"}}, "geometry": {"type": "Point", "coordinates": [-112.89419423793949, -0.038350132676741894]}}, {"type": "Feature", "properties": {"norad_id": 28702, "name": "GALAXY 28 (G-28)", "group": "intelsat", "lat": -0.7942687791365998, "lon": -82.54697503328389, "alt_km": 35775.95079775314, "timestamp": "2025-12-03T19:33:06.647116+00:00", "meta": {"OBJECT_NAME": "GALAXY 28 (G-28)", "OBJECT_ID": "2005-022A", "EPOCH": "2025-12-03T09:54:35.322912", "MEAN_MOTION": 1.00272322, "ECCENTRICITY": 0.0002666, "INCLINATION": 2.7948, "RA_OF_ASC_NODE": 81.3891, "ARG_OF_PERICENTER": 169.5585, "MEAN_ANOMALY": 241.5015, "EPHEMERIS_TYPE": 0, "CLASSIFICATION_TYPE": "U", "NORAD_CAT_ID": 28702, "ELEMENT_SET_NO": 999, "REV_AT_EPOCH": 5001, "BSTAR": 0, "MEAN_MOTION_DOT": -1.7e-06, "MEAN_MOTION_DDOT": 0}, "tle": {"line1": "1 28702U 05022A   25337.41290883 -.00000170  00000+0  00000+0 0  9990", "line2": "2 28702   2.7948  81.3891 0002666 169.5585 241.5015  1.00272322 50013"}}, "geometry": {"type": "Point", "coordinates": [-82.54697503328389, -0.7942687791365998]}}, {"type": "Feature", "properties": {"norad_id": 29236, "name": "GALAXY 16 (G-16)", "group": "intelsat", "lat": -0.0037444385564610323, "lon": -92.85291078071415, "alt_km": 35774.494931444286, "timestamp": "2025-12-03T19:33:06.647127+00:00", "meta": {"OBJECT_NAME": "GALAXY 16 (G-16)", "OBJECT_ID": "2006-023A", "EPOCH": "2025-12-03T09:51:35.610048", "MEAN_MOTION": 1.00270132, "ECCENTRICITY": 0.0002909, "INCLINATION": 0.0247, "RA_OF_ASC_NODE": 220.4527, "ARG_OF_PERICENTER": 34.8063, "MEAN_ANOMALY": 226.1304, "EPHEMERIS_TYPE": 0, "CLASSIFICATION_TYPE": "U", "NORAD_CAT_ID": 29236, "ELEMENT_SET_NO": 999, "REV_AT_EPOCH": 7101, "BSTAR": 0, "MEAN_MOTION_DOT": -1.08e-06, "MEAN_MOTION_DDOT": 0}, "tle": {"line1": "1 29236U 06023A   25337.41082882 -.00000108  00000+0  00000+0 0  9994", "line2": "2 29236   0.0247 220.4527 0002909  34.8063 226.1304  1.00270132 71016"}}, "geometry": {"type": "Point", "coordinates": [-92.85291078071415, -0.0037444385564610323]}}, {"type": "Feature", "properties": {"norad_id": 29494, "name": "DIRECTV 9S", "group": "intelsat", "lat": -0.07806991099746331, "lon": -95.04168953975277, "alt_km": 35773.2372932585, "timestamp": "2025-12-03T19:33:06.647139+00:00", "meta": {"OBJECT_NAME": "DIRECTV 9S", "OBJECT_ID": "2006-043A", "EPOCH": "2025-12-03T09:50:58.170336", "MEAN_MOTION": 1.00270573, "ECCENTRICITY": 0.0003202, "INCLINATION": 1.9142, "RA_OF_ASC_NODE": 83.3095, "ARG_OF_PERICENTER": 168.2729, "MEAN_ANOMALY": 227.4569, "EPHEMERIS_TYPE": 0, "CLASSIFICATION_TYPE": "U", "NORAD_CAT_ID": 29494, "ELEMENT_SET_NO": 999, "REV_AT_EPOCH": 4942, "BSTAR": 0, "MEAN_MOTION_DOT": -9.5e-07, "MEAN_MOTION_DDOT": 0}, "tle": {"line1": "1 29494U 06043A   25337.41039549 -.00000095  00000+0  00000+0 0  9999", "line2": "2 29494   1.9142  83.3095 0003202 168.2729 227.4569  1.00270573 49426"}}, "geometry": {"type": "Point", "coordinates": [-95.04168953975277, -0.07806991099746331]}}, {"type": "Feature", "properties": {"norad_id": 31307, "name": "GALAXY 17 (G-17)", "group": "intelsat", "lat": -0.8167214258021331, "lon": -78.81071747109206, "alt_km": 35767.341184271965, "timestamp": "2025-12-03T19:33:06.647151+00:00", "meta": {"OBJECT_NAME": "GALAXY 17 (G-17)", "OBJECT_ID": "2007-016B", "EPOCH": "2025-12-03T09:55:35.228352", "MEAN_MOTION": 1.00270439, "ECCENTRICITY": 0.0006113, "INCLINATION": 2.4746, "RA_OF_ASC_NODE": 82.392, "ARG_OF_PERICENTER": 156.6812, "MEAN_ANOMALY": 257.3305, "EPHEMERIS_TYPE": 0, "CLASSIFICATION_TYPE": "U", "NORAD_CAT_ID": 31307, "ELEMENT_SET_NO": 999, "REV_AT_EPOCH": 6784, "BSTAR": 0, "MEAN_MOTION_DOT": -1.89e-06, "MEAN_MOTION_DDOT": 0}, "tle": {"line1": "1 31307U 07016B   25337.41360218 -.00000189  00000+0  00000+0 0  9990", "line2": "2 31307   2.4746  82.3920 0006113 156.6812 257.3305  1.00270439 67849"}}, "geometry": {"type": "Point", "coordinates": [-78.81071747109206, -0.8167214258021331]}}, {"type": "Feature", "properties": {"norad_id": 31862, "name": "DIRECTV 10", "group": "intelsat", "lat": -0.012695769202704304, "lon": -96.6408697219752, "alt_km": 35786.00722003358, "timestamp": "2025-12-03T19:33:06.647163+00:00", "meta": {"OBJECT_NAME": "DIRECTV 10", "OBJECT_ID": "2007-032A", "EPOCH": "2025-12-03T08:07:45.558336", "MEAN_MOTION": 1.00270968, "ECCENTRICITY": 2.91e-05, "INCLINATION": 0.0057, "RA_OF_ASC_NODE": 272.492, "ARG_OF_PERICENTER": 275.3626, "MEAN_ANOMALY": 263.7199, "EPHEMERIS_TYPE": 0, "CLASSIFICATION_TYPE": "U", "NORAD_CAT_ID": 31862, "ELEMENT_SET_NO": 999, "REV_AT_EPOCH": 4363, "BSTAR": 0, "MEAN_MOTION_DOT": -8.4e-07, "MEAN_MOTION_DDOT": 0}, "tle": {"line1": "1 31862U 07032A   25337.33872174 -.00000084  00000+0  00000+0 0  9998", "line2": "2 31862   0.0057 272.4920 0000291 275.3626 263.7199  1.00270968 43639"}}, "geometry": {"type": "Point", "coordinates": [-96.6408697219752, -0.012695769202704304]}}, {"type": "Feature", "properties": {"norad_id": 32253, "name": "INTELSAT 11 (IS-11)", "group": "intelsat", "lat": -0.559192733929922, "lon": -88.80804438942798, "alt_km": 36098.26361549317, "timestamp": "2025-12-03T19:33:06.647174+00:00", "meta": {"OBJECT_NAME": "INTELSAT 11 (IS-11)", "OBJECT_ID": "2007-044B", "EPOCH": "2025-12-03T09:53:12.955200", "MEAN_MOTION": 0.99047262, "ECCENTRICITY": 0.0009282, "INCLINATION": 3.0539, "RA_OF_ASC_NODE": 81.0808, "ARG_OF_PERICENTER": 161.1046, "MEAN_ANOMALY": 245.3925, "EPHEMERIS_TYPE": 0, "CLASSIFICATION_TYPE": "U", "NORAD_CAT_ID": 32253, "ELEMENT_SET_NO": 999, "REV_AT_EPOCH": 6651, "BSTAR": 0, "MEAN_MOTION_DOT": 7e-08, "MEAN_MOTION_DDOT": 0}, "tle": {"line1": "1 32253U 07044B   25337.41195550  .00000007  00000+0  00000+0 0  9995", "line2": "2 32253   3.0539  81.0808 0009282 161.1046 245.3925  0.99047262 66519"}}, "geometry": {"type": "Point", "coordinates": [-88.80804438942798, -0.559192733929922]}}, {"type": "Feature", "properties": {"norad_id": 32388, "name": "HORIZONS-2", "group": "intelsat", "lat": -1.040977694416332, "lon": -67.61661848637891, "alt_km": 35767.69120116834, "timestamp": "2025-12-03T19:33:06.647186+00:00", "meta": {"OBJECT_NAME": "HORIZONS-2", "OBJECT_ID": "2007-063B", "EPOCH": "2025-12-03T09:58:49.916064", "MEAN_MOTION": 1.00272062, "ECCENTRICITY": 0.0004974, "INCLINATION": 2.0954, "RA_OF_ASC_NODE": 83.0628, "ARG_OF_PERICENTER": 180.814, "MEAN_ANOMALY": 244.5524, "EPHEMERIS_TYPE": 0, "CLASSIFICATION_TYPE": "U", "NORAD_CAT_ID": 32388, "ELEMENT_SET_NO": 999, "REV_AT_EPOCH": 6585, "BSTAR": 0, "MEAN_MOTION_DOT": -2.36e-06, "MEAN_MOTION_DDOT": 0}, "tle": {"line1": "1 32388U 07063B   25337.41585551 -.00000236  00000+0  00000+0 0  9994", "line2": "2 32388   2.0954  83.0628 0004974 180.8140 244.5524  1.00272062 65859"}}, "geometry": {"type": "Point", "coordinates": [-67.61661848637891, -1.040977694416332]}}, {"type": "Feature", "properties": {"norad_id": 32729, "name": "DIRECTV 11", "group": "intelsat", "lat": -0.005059222943366554, "lon": -93.04347956178152, "alt_km": 35786.98527527004, "timestamp": "2025-12-03T19:33:06.647198+00:00", "meta": {"OBJECT_NAME": "DIRECTV 11", "OBJECT_ID": "2008-013A", "EPOCH": "2025-12-03T08:08:52.950336", "MEAN_MOTION": 1.00268433, "ECCENTRICITY": 2.81e-05, "INCLINATION": 0.0112, "RA_OF_ASC_NODE": 227.5771, "ARG_OF_PERICENTER": 311.5736, "MEAN_ANOMALY": 276.3071, "EPHEMERIS_TYPE": 0, "CLASSIFICATION_TYPE": "U", "NORAD_CAT_ID": 32729, "ELEMENT_SET_NO": 999, "REV_AT_EPOCH": 4363, "BSTAR": 0, "MEAN_MOTION_DOT": -1.07e-06, "MEAN_MOTION_DDOT": 0}, "tle": {"line1": "1 32729U 08013A   25337.33950174 -.00000107  00000+0  00000+0 0  9994", "line2": "2 32729   0.0112 227.5771 0000281 311.5736 276.3071  1.00268433 43636"}}, "geometry": {"type": "Point", "coordinates": [-93.04347956178152, -0.005059222943366554]}}, {"type": "Feature", "properties": {"norad_id": 32951, "name": "GALAXY 18 (G-18)", "group": "intelsat", "lat": -0.033063179326815566, "lon": -116.85087927108101, "alt_km": 35772.05691343196, "timestamp": "2025-12-03T19:33:06.647209+00:00", "meta": {"OBJECT_NAME": "GALAXY 18 (G-18)", "OBJECT_ID": "2008-024A", "EPOCH": "2025-12-03T08:01:53.619168", "MEAN_MOTION": 1.00272272, "ECCENTRICITY": 0.0003386, "INCLINATION": 0.018, "RA_OF_ASC_NODE": 10.9677, "ARG_OF_PERICENTER": 247.1815, "MEAN_ANOMALY": 171.7557, "EPHEMERIS_TYPE": 0, "CLASSIFICATION_TYPE": "U", "NORAD_CAT_ID": 32951, "ELEMENT_SET_NO": 999, "REV_AT_EPOCH": 4388, "BSTAR": 0, "MEAN_MOTION_DOT": 4.4e-07, "MEAN_MOTION_DDOT": 0}, "tle": {"line1": "1 32951U 08024A   25337.33464837  .00000044  00000+0  00000+0 0  9998", "line2": "2 32951   0.0180  10.9677 0003386 247.1815 171.7557  1.00272272 43888"}}, "geometry": {"type": "Point", "coordinates": [-116.85087927108101, -0.033063179326815566]}}]}